[{"OBJECT_NAME":"ARIRANG-5 (KOMPSAT-5)","OBJECT_ID":"2013-042A","EPOCH":"2026-03-10T00:02:57.181344","MEAN_MOTION":15.04553599,"ECCENTRICITY":0.00039005,"INCLINATION":97.62,"RA_OF_ASC_NODE":257.0804,"ARG_OF_PERICENTER":111.6826,"MEAN_ANOMALY":248.4816,"EPHEMERIS_TYPE":0,"CLASSIFICATION_TYPE":"U","NORAD_CAT_ID":39227,"ELEMENT_SET_NO":999,"REV_AT_EPOCH":68894,"BSTAR":0.00023956705,"MEAN_MOTION_DOT":3.298e-5,"MEAN_MOTION_DDOT":0},{"OBJECT_NAME":"STARLINK-35353","OBJECT_ID":"2025-211T","EPOCH":"2026-03-09T16:16:15.592800","MEAN_MOTION":15.05660775,"ECCENTRICITY":7.77e-6,"INCLINATION":97.6035,"RA_OF_ASC_NODE":114.1077,"ARG_OF_PERICENTER":76.3388,"MEAN_ANOMALY":283.7847,"EPHEMERIS_TYPE":0,"CLASSIFICATION_TYPE":"U","NORAD_CAT_ID":65669,"ELEMENT_SET_NO":999,"REV_AT_EPOCH":2704,"BSTAR":0.0002516605,"MEAN_MOTION_DOT":3.573e-5,"MEAN_MOTION_DDOT":0}]
